NORAD_CAT_ID,OBJECT_NAME,OBJECT_TYPE,EPOCH,MEAN_MOTION,ECCENTRICITY,INCLINATION,RA_OF_ASC_NODE,ARG_OF_PERICENTER,MEAN_ANOMALY,BSTAR,MEAN_MOTION_DOT,MEAN_MOTION_DDOT,TLE_LINE0,TLE_LINE1,TLE_LINE2,SEMIMAJOR_AXIS,PERIOD,APOGEE,PERIGEE,DECAYED
54765.0,STARLINK-5466,PAYLOAD,2023-09-25 23:11:29,15.08856993,0.0001207,53.215,105.2892,91.1171,268.9959,0.00052345,8.056e-05,0.0,0 STARLINK-5466,1 54765U 22175H   23268.96630810  .00008056  00000-0  52345-3 0  9999,2 54765  53.2150 105.2892 0001207  91.1171 268.9959 15.08856993 42549,6917.828,95.436,540.528,538.858,0.0
54765.0,STARLINK-5466,PAYLOAD,2023-09-26 13:29:57,15.08843887,0.0001237,53.2156,102.6106,114.7472,245.3649,0.00016629,2.36e-05,0.0,0 STARLINK-5466,1 54765U 22175H   23269.56247308  .00002360  00000-0  16629-3 0  9999,2 54765  53.2156 102.6106 0001237 114.7472 245.3649 15.08843887 44784,6917.869,95.437,540.589,538.878,0.0
54765.0,STARLINK-5466,PAYLOAD,2023-09-26 18:16:07,15.0882636,0.0001181,53.2153,101.7204,94.6937,265.419,-0.00032034,-5.38e-05,0.0,0 STARLINK-5466,1 54765U 22175H   23269.76119680 -.00005380  00000-0 -32034-3 0  9997,2 54765  53.2153 101.7204 0001181  94.6937 265.4190 15.08826360 42666,6917.922,95.438,540.604,538.97,0.0
54765.0,STARLINK-5466,PAYLOAD,2023-09-26 19:51:30,15.08829141,0.0001118,53.2154,101.4229,103.5986,256.5131,-0.00019158,-3.335e-05,0.0,0 STARLINK-5466,1 54765U 22175H   23269.82743709 -.00003335  00000-0 -19158-3 0  9999,2 54765  53.2154 101.4229 0001118 103.5986 256.5131 15.08829141 44821,6917.914,95.438,540.552,539.005,0.0
54765.0,STARLINK-5466,PAYLOAD,2023-09-27 05:23:49,15.08831766,0.0001149,53.2154,99.6386,91.6767,268.4357,-8.344e-06,-4.21e-06,0.0,0 STARLINK-5466,1 54765U 22175H   23270.22488035 -.00000421  00000-0 -83440-5 0  9993,2 54765  53.2154  99.6386 0001149  91.6767 268.4357 15.08831766 44885,6917.906,95.438,540.565,538.976,0.0
54765.0,STARLINK-5466,PAYLOAD,2023-09-27 18:06:55,15.08839267,0.0001051,53.2153,97.2601,89.378,270.7332,0.00076937,0.00011978,0.0,0 STARLINK-5466,1 54765U 22175H   23270.75480423  .00011978  00000-0  76937-3 0  9992,2 54765  53.2153  97.2601 0001051  89.3780 270.7332 15.08839267 42813,6917.883,95.438,540.475,539.021,0.0
54765.0,STARLINK-5466,PAYLOAD,2023-09-28 11:36:09,15.08853311,0.0001059,53.2147,93.9897,85.0955,275.0158,0.00057906,8.943e-05,0.0,0 STARLINK-5466,1 54765U 22175H   23271.48344022  .00008943  00000-0  57906-3 0  9990,2 54765  53.2147  93.9897 0001059  85.0955 275.0158 15.08853311 45072,6917.84,95.437,540.437,538.972,0.0
54765.0,STARLINK-5466,PAYLOAD,2023-09-28 21:08:27,15.08860497,0.0001044,53.2147,92.205,87.3214,272.7898,0.00060654,9.384e-05,0.0,0 STARLINK-5466,1 54765U 22175H   23271.88087551  .00009384  00000-0  60654-3 0  9999,2 54765  53.2147  92.2050 0001044  87.3214 272.7898 15.08860497 45137,6917.818,95.436,540.405,538.961,0.0
54765.0,STARLINK-5466,PAYLOAD,2023-09-29 17:48:28,15.08845968,0.0001118,53.2149,88.338,106.49,253.6215,4.2645e-05,3.91e-06,0.0,0 STARLINK-5466,1 54765U 22175H   23272.74199468  .00000391  00000-0  42645-4 0  9996,2 54765  53.2149  88.3380 0001118 106.4900 253.6215 15.08845968 43111,6917.862,95.437,540.501,538.954,0.0
54765.0,STARLINK-5466,PAYLOAD,2023-09-29 19:23:51,15.08848403,0.0001123,53.2154,88.0406,103.8799,256.2319,9.5558e-05,1.234e-05,0.0,0 STARLINK-5466,1 54765U 22175H   23272.80823433  .00001234  00000-0  95558-4 0  9997,2 54765  53.2154  88.0406 0001123 103.8799 256.2319 15.08848403 45276,6917.855,95.437,540.497,538.943,0.0
54765.0,STARLINK-5466,PAYLOAD,2023-09-30 17:39:15,15.08843546,0.0001228,53.2156,83.8787,79.5382,280.5749,6.0361e-06,-1.92e-06,0.0,0 STARLINK-5466,1 54765U 22175H   23273.73559658 -.00000192  00000-0  60361-5 0  9993,2 54765  53.2156  83.8787 0001228  79.5382 280.5749 15.08843546 43263,6917.87,95.437,540.584,538.885,0.0
54765.0,STARLINK-5466,PAYLOAD,2023-10-01 04:46:57,15.08849706,0.0001252,53.2157,81.7974,76.0905,284.0226,0.00011018,1.467e-05,0.0,0 STARLINK-5466,1 54765U 22175H   23274.19927299  .00001467  00000-0  11018-3 0  9992,2 54765  53.2157  81.7974 0001252  76.0905 284.0226 15.08849706 45488,6917.851,95.437,540.582,538.85,0.0
54765.0,STARLINK-5466,PAYLOAD,2023-10-01 20:40:48,15.08856442,0.0001242,53.2164,78.8223,87.6433,272.4701,0.00030353,4.548e-05,0.0,0 STARLINK-5466,1 54765U 22175H   23274.86166743  .00004548  00000-0  30353-3 0  9991,2 54765  53.2164  78.8223 0001242  87.6433 272.4701 15.08856442 45588,6917.83,95.437,540.554,538.836,0.0
54765.0,STARLINK-5466,PAYLOAD,2023-10-02 10:59:16,15.08842835,0.0001707,53.2165,76.1464,88.2544,271.8643,8.6978e-05,1.097e-05,0.0,0 STARLINK-5466,1 54765U 22175H   23275.45783543  .00001097  00000-0  86978-4 0  9991,2 54765  53.2165  76.1464 0001707  88.2544 271.8643 15.08842835 43524,6917.872,95.437,540.918,538.556,0.0
54765.0,STARLINK-5466,PAYLOAD,2023-10-02 17:20:49,15.08840311,0.0001508,53.2172,74.9577,87.6534,272.4631,1.2521e-05,-8.9e-07,0.0,0 STARLINK-5466,1 54765U 22175H   23275.72279502 -.00000089  00000-0  12521-4 0  9990,2 54765  53.2172  74.9577 0001508  87.6534 272.4631 15.08840311 45718,6917.879,95.438,540.788,538.701,0.0
54765.0,STARLINK-5466,PAYLOAD,2023-10-03 14:00:50,15.08839529,0.0001257,53.2159,71.0923,89.008,271.1056,5.4089e-05,5.73e-06,0.0,0 STARLINK-5466,1 54765U 22175H   23276.58391684  .00000573  00000-0  54089-4 0  9993,2 54765  53.2159  71.0923 0001257  89.0080 271.1056 15.08839529 45849,6917.882,95.438,540.616,538.877,0.0
54765.0,STARLINK-5466,PAYLOAD,2023-10-03 17:11:36,15.08842512,0.0001202,53.2161,70.4978,88.0661,272.0469,0.00010256,1.345e-05,0.0,0 STARLINK-5466,1 54765U 22175H   23276.71639528  .00001345  00000-0  10256-3 0  9995,2 54765  53.2161  70.4978 0001202  88.0661 272.0469 15.08842512 43717,6917.873,95.437,540.569,538.906,0.0
54765.0,STARLINK-5466,PAYLOAD,2023-10-04 10:40:51,15.08834466,0.0001347,53.2163,67.2254,92.0832,268.0315,0.00030242,4.528e-05,0.0,0 STARLINK-5466,1 54765U 22175H   23277.44504102  .00004528  00000-0  30242-3 0  9998,2 54765  53.2163  67.2254 0001347  92.0832 268.0315 15.08834466 43821,6917.897,95.438,540.694,538.83,0.0
54765.0,STARLINK-5466,PAYLOAD,2023-10-04 13:51:36,15.08865788,0.0001534,53.2163,66.6309,84.0785,276.0382,-0.00054702,-8.989e-05,0.0,0 STARLINK-5466,1 54765U 22175H   23277.57750129 -.00008989  00000-0 -54702-3 0  9998,2 54765  53.2163  66.6309 0001534  84.0785 276.0382 15.08865788 45995,6917.802,95.436,540.728,538.605,0.0
54765.0,STARLINK-5466,PAYLOAD,2023-10-04 17:02:23,15.08848563,0.0001431,53.2176,66.0398,92.2592,267.8564,0.0002779,4.139e-05,0.0,0 STARLINK-5466,1 54765U 22175H   23277.70999389  .00004139  00000-0  27790-3 0  9994,2 54765  53.2176  66.0398 0001431  92.2592 267.8564 15.08848563 43860,6917.854,95.437,540.709,538.729,0.0
54765.0,STARLINK-5466,PAYLOAD,2023-10-05 02:34:42,15.08842088,0.0001319,53.2167,64.2513,76.0989,284.015,0.0001554,2.186e-05,0.0,0 STARLINK-5466,1 54765U 22175H   23278.10743659  .00002186  00000-0  15540-3 0  9996,2 54765  53.2167  64.2513 0001319  76.0989 284.0150 15.08842088 43929,6917.874,95.437,540.651,538.827,0.0
54765.0,STARLINK-5466,PAYLOAD,2023-10-05 13:42:24,15.08836477,0.0001359,53.2167,62.1719,80.2462,279.8683,2.9521e-05,1.82e-06,0.0,0 STARLINK-5466,1 54765U 22175H   23278.57112035  .00000182  00000-0  29521-4 0  9994,2 54765  53.2167  62.1719 0001359  80.2462 279.8683 15.08836477 46146,6917.891,95.438,540.696,538.816,0.0
54765.0,STARLINK-5466,PAYLOAD,2023-10-05 16:53:10,15.08843879,0.0001254,53.2162,61.5782,90.6574,269.4562,0.00015207,2.133e-05,0.0,0 STARLINK-5466,1 54765U 22175H   23278.70359649  .00002133  00000-0  15207-3 0  9996,2 54765  53.2162  61.5782 0001254  90.6574 269.4562 15.08843879 46164,6917.869,95.437,540.601,538.866,0.0
54765.0,STARLINK-5466,PAYLOAD,2023-10-06 08:47:02,15.08834432,0.0001244,53.2158,58.6034,83.4466,276.6668,-4.9306e-05,-1.072e-05,0.0,0 STARLINK-5466,1 54765U 22175H   23279.36600190 -.00001072  00000-0 -49306-4 0  9990,2 54765  53.2158  58.6034 0001244  83.4466 276.6668 15.08834432 44110,6917.897,95.438,540.623,538.902,0.0
54765.0,STARLINK-5466,PAYLOAD,2023-10-06 13:33:12,15.08834439,0.0001189,53.2161,57.7112,78.8043,281.3083,-2.4499e-05,-6.78e-06,0.0,0 STARLINK-5466,1 54765U 22175H   23279.56472316 -.00000678  00000-0 -24499-4 0  9996,2 54765  53.2161  57.7112 0001189  78.8043 281.3083 15.08834439 46290,6917.897,95.438,540.585,538.94,0.0
54765.0,STARLINK-5466,PAYLOAD,2023-10-06 16:43:58,15.08841693,0.0001397,53.2173,57.1155,77.6604,282.4544,6.4896e-05,7.45e-06,0.0,0 STARLINK-5466,1 54765U 22175H   23279.69720129  .00000745  00000-0  64896-4 0  9996,2 54765  53.2173  57.1155 0001397  77.6604 282.4544 15.08841693 46312,6917.875,95.437,540.707,538.774,0.0
54765.0,STARLINK-5466,PAYLOAD,2023-10-07 13:23:59,15.08841764,0.000172,53.2181,53.2507,86.1098,274.0091,0.00020342,2.951e-05,0.0,0 STARLINK-5466,1 54765U 22175H   23280.55832379  .00002951  00000-0  20342-3 0  9992,2 54765  53.2181  53.2507 0001720  86.1098 274.0091 15.08841764 46448,6917.875,95.437,540.93,538.55,0.0
54765.0,STARLINK-5466,PAYLOAD,2023-10-07 18:10:08,15.08851345,0.0001337,53.217,52.3579,89.5577,270.5568,0.00033751,5.089e-05,0.0,0 STARLINK-5466,1 54765U 22175H   23280.75703812  .00005089  00000-0  33751-3 0  9996,2 54765  53.2170  52.3579 0001337  89.5577 270.5568 15.08851345 44329,6917.846,95.437,540.636,538.786,0.0
54765.0,STARLINK-5466,PAYLOAD,2023-10-08 02:07:04,15.0883946,0.0001296,53.2166,50.8725,83.6703,276.4437,0.00015606,2.197e-05,0.0,0 STARLINK-5466,1 54765U 22175H   23281.08824461  .00002197  00000-0  15606-3 0  9993,2 54765  53.2166  50.8725 0001296  83.6703 276.4437 15.08839460 44379,6917.882,95.438,540.644,538.85,0.0
54765.0,STARLINK-5466,PAYLOAD,2023-10-08 13:14:46,15.08842326,0.0001203,53.2177,48.7889,90.5873,269.5257,0.00012926,1.77e-05,0.0,0 STARLINK-5466,1 54765U 22175H   23281.55192329  .00001770  00000-0  12926-3 0  9994,2 54765  53.2177  48.7889 0001203  90.5873 269.5257 15.08842326 46595,6917.873,95.437,540.57,538.906,0.0
